OE (NEXTSAT)            
1 30774U 07006C   21259.03740787  .00004100  00000-0  87974-4 0  9993
2 30774  46.0003  90.1470 0006027 298.4341  61.5957 15.46651744811278
FALCONSAT-3             
1 30776U 07006E   21258.66293992  .00007319  00000-0  16963-3 0  9998
2 30776  35.4331 240.0793 0002050 332.8742  27.1879 15.41746930807037
CFESAT                  
1 30777U 07006F   21258.74647519  .00006814  00000-0  16217-3 0  9997
2 30777  35.4239 278.2071 0003729   6.0869 353.9903 15.40963350806629
INSAT-4B                
1 30793U 07007A   21258.87064245 -.00000210  00000-0  00000-0 0  9994
2 30793   1.5414  92.6891 0005216 126.0048 175.3265  1.00271783 24801
SKYNET 5A               
1 30794U 07007B   21258.87256126 -.00000292  00000-0  00000-0 0  9996
2 30794   1.6583  89.8441 0003647  95.6394 218.8826  1.00269142 53297
THEMIS D                
1 30797U 07004D   21258.41257212 -.00000326  00000-0  00000-0 0  9991
2 30797  13.0540 357.1062 8364030 128.7049 152.9066  0.87839053 25818
THEMIS E                
1 30798U 07004E   21259.28329295 -.00000342  00000-0  00000+0 0  9996
2 30798  13.0473   8.8691 8349977 119.7309  54.1168  0.87842677 50656
ANIK F3                 
1 31102U 07009A   21258.64439000 -.00000021  00000-0  00000-0 0  9991
2 31102   0.0243 157.2136 0001862   3.4280 307.4316  1.00270181 29169
HAIYANG-1B              
1 31113U 07010A   21258.83426593 -.00000015  00000-0  10344-4 0  9998
2 31113  98.3511 290.4410 0012786 309.0565  50.9479 14.30277253752518
SAUDISAT 3              
1 31118U 07012B   21259.39807732  .00000046  00000-0  15885-4 0  9993
2 31118  97.9290 208.7018 0015016 354.3920   5.7115 14.69217172772912
SAUDICOMSAT 7           
1 31119U 07012C   21258.83369267  .00000071  00000-0  23648-4 0  9992
2 31119  98.1465 202.8876 0058860 230.0952 129.5067 14.61890005768589
SAUDICOMSAT 6           
1 31121U 07012E   21259.41382022  .00000089  00000-0  28891-4 0  9998
2 31121  98.1920 198.6942 0075829 326.2662  33.3724 14.58685153767060
SAUDICOMSAT 5           
1 31124U 07012H   21258.81162050  .00000081  00000-0  24647-4 0  9998
2 31124  98.1141 204.7831 0051465 179.0849 181.0456 14.63597325769418
SAUDICOMSAT 3           
1 31125U 07012J   21259.41167724  .00000117  00000-0  30265-4 0  9992
2 31125  98.0787 207.2746 0044238 127.4126 233.1117 14.65379686770440
SAUDICOMSAT 4           
1 31127U 07012L   21259.10686070  .00000077  00000-0  25662-4 0  9990
2 31127  98.1709 201.3737 0066600 275.7927  83.5684 14.60403515767890
AGILE                   
1 31135U 07013A   21258.49920148  .00003857  00000-0  78892-4 0  9990
2 31135   2.4672 232.2090 0010801  95.5476 264.5810 15.33980880434619
AIM                     
1 31304U 07015A   21258.65105295  .00001729  00000-0  97262-4 0  9994
2 31304  97.8592 163.3473 0003652 230.8771 129.2135 15.14702891789560
ASTRA 1L                
1 31306U 07016A   21259.09216016  .00000098  00000-0  00000+0 0  9997
2 31306   0.0705 305.5431 0002450 277.1548 184.9182  1.00271585 52642
GALAXY 17 (G-17)        
1 31307U 07016B   21258.83540634 -.00000195  00000-0  00000-0 0  9995
2 31307   0.0222 113.7846 0003215  54.3248  36.6526  1.00272238 52403
YAOGAN 2                
1 31490U 07019A   21259.39615533  .00000135  00000-0  26826-4 0  9995
2 31490  98.2134  40.8850 0021768  86.5568 273.8131 14.77096483771125
GLOBALSTAR M065         
1 31571U 07020A   21258.75706918 -.00000089  00000-0  85060-4 0  9998
2 31571  51.9908  78.0746 0001328  55.7344 316.4821 12.62267685660366
GLOBALSTAR M069         
1 31573U 07020C   21258.69143501 -.00000094  00000-0  55266-4 0  9997
2 31573  51.9971  34.4911 0000996  67.9842 305.2295 12.62264967661470
GLOBALSTAR M072         
1 31574U 07020D   21259.03322208 -.00000099  00000-0  28285-4 0  9996
2 31574  52.0074 128.4859 0000250  52.4518  94.6834 12.62269366659949
GLOBALSTAR M071         
1 31576U 07020F   21258.90481477 -.00000100  00000-0  23295-4 0  9996
2 31576  52.0084  38.2214 0001024  28.1997 114.7178 12.62264607661419
COSMO-SKYMED 1          
1 31598U 07023A   21259.10649089 -.00000103  00000-0 -63976-5 0  9996
2 31598  97.8932  81.7243 0001265  87.3352 272.7998 14.82154813772325
TERRASAR-X              
1 31698U 07026A   21259.23527728  .00000917  00000-0  46846-4 0  9996
2 31698  97.4471 265.7615 0002605  89.9187 345.8436 15.19158069790495
GENESIS 2               
1 31789U 07028A   21259.44366834  .00000598  00000-0  39373-4 0  9993
2 31789  64.4932 291.9714 0013576  12.5352 347.6105 15.17907256784357
COSMOS 2428             
1 31792U 07029A   21259.41801692  .00000311  00000-0  19451-3 0  9998
2 31792  70.9139  34.8819 0005899 111.7945 248.3803 14.12353509733245
ZHONGXING-6B            
1 31800U 07031A   21259.02013433 -.00000383  00000-0  00000+0 0  9992
2 31800   0.0095 196.8645 0003527 328.5140 312.5823  1.00271599 52079
DIRECTV 10              
1 31862U 07032A   21258.61779708 -.00000123  00000-0  00000-0 0  9992
2 31862   0.0428 333.6393 0000196 200.0895 300.6798  1.00272131 28208
SPACEWAY 3              
1 32018U 07036A   21259.48064609 -.00000174  00000-0  00000+0 0  9998
2 32018   0.0252  18.1584 0000240  16.7904  38.7739  1.00271990 51737
BSAT-3A                 
1 32019U 07036B   21258.87993396 -.00000371  00000-0  00000-0 0  9995
2 32019   0.0595 245.1974 0003885 320.6739 215.8029  1.00270213 33113
WORLDVIEW-1 (WV-1)      
1 32060U 07041A   21258.91413360  .00001423  00000-0  60579-4 0  9999
2 32060  97.3817  17.1782 0000869  16.7974 343.3293 15.24609428778562
OPTUS D2                
1 32252U 07044A   21258.95568014 -.00000205  00000-0  00000+0 0  9992
2 32252   0.0207 152.8301 0003836  21.5230 316.8189  1.00268802 51041
INTELSAT 11 (IS-11)     
1 32253U 07044B   21258.84500034 -.00000289  00000-0  00000-0 0  9992
2 32253   0.0131 231.8613 0001832 307.9236  76.4426  1.00270376 51090
WGS F1 (USA 195)        
1 32258U 07046A   21259.35952135  .00000019  00000-0  00000+0 0  9998
2 32258   0.0183 113.9940 0001402  85.6133 291.3098  1.00273194 50929
NAVSTAR 60 (USA 196)    
1 32260U 07047A   21257.67136138 -.00000029  00000-0  00000-0 0  9995
2 32260  53.2473 151.9736 0134525  58.2843 303.0735  2.00562661101989
GLOBALSTAR M067         
1 32263U 07048A   21258.91881538 -.00000056  00000-0  30778-3 0  9996
2 32263  51.9723  85.1504 0000541 358.8336 100.2437 12.40601804639409
GLOBALSTAR M070         
1 32264U 07048B   21258.73199392 -.00000104  00000-0 -20518-5 0  9995
2 32264  51.9774 343.1982 0001228  63.9023  73.8247 12.62264907640592
GLOBALSTAR M066         
1 32265U 07048C   21258.61610663 -.00000095  00000-0  50014-4 0  9993
2 32265  51.9664 205.9853 0000872 109.3868  61.1153 12.62268661642846
COSMOS 2433 [GLONASS-M] 
1 32275U 07052A   21258.60035344 -.00000080  00000-0  00000-0 0  9995
2 32275  66.0737  13.7933 0003052 200.8007 161.7163  2.13104339108115
COSMOS 2432 [GLONASS-M] 
1 32276U 07052B   21258.66733698 -.00000080  00000-0  00000+0 0  9998
2 32276  66.0869  13.8878 0007644 330.3075  32.6487  2.13103531108114
YAOGAN 3                
1 32289U 07055A   21259.13046266 -.00000121  00000-0 -88149-5 0  9999
2 32289  97.9707 277.9516 0001220  78.4355 281.6996 14.81114554748430
STAR ONE C1             
1 32293U 07056A   21258.84063942 -.00000297  00000-0  00000-0 0  9990
2 32293   0.2848  96.4889 0002758  77.2141  58.9411  1.00271500 34372
SKYNET 5B               
1 32294U 07056B   21259.35188192  .00000120  00000-0  00000+0 0  9996
2 32294   0.8397  90.2261 0003862  88.7543 328.3512  1.00274830 50793
ASTRA 4A (SIRIUS 4)     
1 32299U 07057A   21259.35952135  .00000010  00000-0  00000+0 0  9996
2 32299   0.0202 277.0145 0002776 247.8022 324.9440  1.00271133 50564
COSMO-SKYMED 2          
1 32376U 07059A   21259.20779279  .00000166  00000-0  27456-4 0  9995
2 32376  97.8932  81.8304 0001407  87.5289 272.6080 14.82149621745083
RADARSAT-2              
1 32382U 07061A   21259.19378769  .00000214  00000-0  10000-3 0  9992
2 32382  98.5771 265.1234 0001166  87.2508 338.9842 14.29984151718102
NAVSTAR 61 (USA 199)    
1 32384U 07062A   21257.90197097 -.00000090  00000-0  00000-0 0  9994
2 32384  56.3350 343.0493 0017870 139.0770 156.5694  2.00574917100686
HORIZONS 2              
1 32388U 07063B   21259.37293168 -.00000204  00000-0  00000+0 0  9994
2 32388   0.0167 169.3329 0002617   5.6486  39.6618  1.00269467 50483
COSMOS 2434 [GLONASS-M] 
1 32393U 07065A   21258.59129355  .00000071  00000-0  00000-0 0  9993
2 32393  64.4416 250.8202 0000838 173.8165  70.4012  2.13103150106812
COSMOS 2436 [GLONASS-M] 
1 32395U 07065C   21258.70645269  .00000070  00000-0  00000-0 0  9994
2 32395  64.4505 250.8704 0014336 349.3220 119.2996  2.13102973106758
THURAYA-3               
1 32404U 08001A   21259.00712620 -.00000321  00000-0  00000+0 0  9995
2 32404   3.8861  18.3154 0004376 114.8456 323.0840  1.00273653 50138
EXPRESS-AM33            
1 32478U 08003A   21258.85136726 -.00000109  00000-0  00000-0 0  9992
2 32478   0.3685  96.1143 0000412 347.5579 206.9101  1.00271856 36333
THOR 5                  
1 32487U 08006A   21258.85346049 -.00000030  00000-0  00000-0 0  9999
2 32487   0.0301 244.1897 0002559 291.7640 125.5608  1.00271927 49903
AMC-14                  
1 32708U 08011A   21258.57008876  .00000068  00000-0  00000-0 0  9993
2 32708  21.6625  41.6093 0035631   8.2734 168.1074  1.00271210 50757
NAVSTAR 62 (USA 201)    
1 32711U 08012A   21258.58569616  .00000014  00000-0  00000-0 0  9994
2 32711  54.5116 219.2101 0154550 228.4122 130.2319  2.00555679 98943
DIRECTV 11              
1 32729U 08013A   21259.19562581 -.00000148  00000-0  00000+0 0  9994
2 32729   0.0389 359.0889 0000212 195.4994 132.0083  1.00271452 49533
ICO G1                  
1 32763U 08016A   21258.83505747 -.00000189  00000-0  00000-0 0  9992
2 32763   3.8160  21.5888 0002162 152.5474  28.6538  1.00271917 49140
